IRIDIUM 150             
1 43257U 18030J   25126.95582988  .00000360  00000+0  12143-3 0  9995
2 43257  86.3929 100.3054 0002458  93.1978 266.9499 14.34220426371957
IRIDIUM 143             
1 43258U 18030K   25126.93679998  .00000385  00000+0  13052-3 0  9999
2 43258  86.3932 100.3902 0002698  94.5373 265.6131 14.34217546371862
IRIDIUM 161             
1 43478U 18047C   25126.89026974  .00000446  00000+0  12661-3 0  9999
2 43478  86.4474 258.1967 0001912  93.6120 266.5300 14.43276451366535
IRIDIUM 152             
1 43479U 18047D   25126.83974538  .00000336  00000+0  11303-3 0  9992
2 43479  86.3949 258.0793 0002012  95.8716 264.2709 14.34216077364258
IRIDIUM 147             
1 43480U 18047E   25126.84609133  .00000094  00000+0  26460-4 0  9993
2 43480  86.3949 258.0746 0002158  90.5355 269.6088 14.34216923364248
IRIDIUM 110             
1 43481U 18047F   25126.64312525  .00000154  00000+0  47773-4 0  9995
2 43481  86.3953 258.2410 0001769  87.2541 272.8858 14.34218762364201
IRIDIUM 162             
1 43482U 18047G   25126.88397830  .00000551  00000+0  15790-3 0  9998
2 43482  86.4472 258.0961 0001909  96.4862 263.6556 14.43280889366521
IRIDIUM 160             
1 43569U 18061A   25127.21688092  .00000011  00000+0 -32279-5 0  9996
2 43569  86.4007 226.3825 0001926  91.7633 268.3784 14.34217469355180
